[{"OBJECT_NAME":"OBJECT V","OBJECT_ID":"2023-085V","EPOCH":"2026-03-09T21:44:00.165408","MEAN_MOTION":15.30745852,"ECCENTRICITY":0.00069081,"INCLINATION":97.4843,"RA_OF_ASC_NODE":179.3833,"ARG_OF_PERICENTER":71.0503,"MEAN_ANOMALY":289.1485,"EPHEMERIS_TYPE":0,"CLASSIFICATION_TYPE":"U","NORAD_CAT_ID":57023,"ELEMENT_SET_NO":999,"REV_AT_EPOCH":15149,"BSTAR":0.00067780507,"MEAN_MOTION_DOT":0.00020109,"MEAN_MOTION_DDOT":0},{"OBJECT_NAME":"STARLINK-32831","OBJECT_ID":"2025-022G","EPOCH":"2026-03-09T10:43:45.283296","MEAN_MOTION":15.30184747,"ECCENTRICITY":0.00011695,"INCLINATION":53.1582,"RA_OF_ASC_NODE":130.6971,"ARG_OF_PERICENTER":80.5355,"MEAN_ANOMALY":279.5778,"EPHEMERIS_TYPE":0,"CLASSIFICATION_TYPE":"U","NORAD_CAT_ID":62860,"ELEMENT_SET_NO":999,"REV_AT_EPOCH":6185,"BSTAR":0.00030727685,"MEAN_MOTION_DOT":8.748e-5,"MEAN_MOTION_DDOT":0}]
